FENGYUN 1C DEB          
1 31154U 99025BHG 17345.25278806  .00001628  00000-0  40683-3 0  9998
2 31154  98.6557  10.3743 0072776 333.5187  26.2296 14.51408055166118
